[{"OBJECT_NAME":"IRIDIUM 173","OBJECT_ID":"2019-002D","EPOCH":"2026-04-26T10:02:34.961280","MEAN_MOTION":14.34217418,"ECCENTRICITY":0.0002101,"INCLINATION":86.401,"RA_OF_ASC_NODE":15.1984,"ARG_OF_PERICENTER":88.2185,"MEAN_ANOMALY":271.9251,"EPHEMERIS_TYPE":0,"CLASSIFICATION_TYPE":"U","NORAD_CAT_ID":43925,"ELEMENT_SET_NO":999,"REV_AT_EPOCH":38153,"BSTAR":-2.1199e-7,"MEAN_MOTION_DOT":1.9e-7,"MEAN_MOTION_DDOT":0},{"OBJECT_NAME":"IRIDIUM 169","OBJECT_ID":"2019-002E","EPOCH":"2026-04-26T12:03:57.697632","MEAN_MOTION":14.38608721,"ECCENTRICITY":0.000281,"INCLINATION":86.4242,"RA_OF_ASC_NODE":46.7907,"ARG_OF_PERICENTER":92.9875,"MEAN_ANOMALY":267.1645,"EPHEMERIS_TYPE":0,"CLASSIFICATION_TYPE":"U","NORAD_CAT_ID":43926,"ELEMENT_SET_NO":999,"REV_AT_EPOCH":38279,"BSTAR":0.00011212,"MEAN_MOTION_DOT":3.63e-6,"MEAN_MOTION_DDOT":0},{"OBJECT_NAME":"IRIDIUM 172","OBJECT_ID":"2019-002F","EPOCH":"2026-04-26T09:53:26.733408","MEAN_MOTION":14.34218845,"ECCENTRICITY":0.0002009,"INCLINATION":86.4009,"RA_OF_ASC_NODE":15.2088,"ARG_OF_PERICENTER":85.1759,"MEAN_ANOMALY":274.9666,"EPHEMERIS_TYPE":0,"CLASSIFICATION_TYPE":"U","NORAD_CAT_ID":43927,"ELEMENT_SET_NO":999,"REV_AT_EPOCH":38154,"BSTAR":-3.9021e-6,"MEAN_MOTION_DOT":9.0e-8,"MEAN_MOTION_DDOT":0},{"OBJECT_NAME":"IRIDIUM 175","OBJECT_ID":"2019-002G","EPOCH":"2026-04-26T06:56:26.638080","MEAN_MOTION":14.43590261,"ECCENTRICITY":0.0004853,"INCLINATION":86.4488,"RA_OF_ASC_NODE":312.2307,"ARG_OF_PERICENTER":56.9575,"MEAN_ANOMALY":303.2092,"EPHEMERIS_TYPE":0,"CLASSIFICATION_TYPE":"U","NORAD_CAT_ID":43928,"ELEMENT_SET_NO":999,"REV_AT_EPOCH":39149,"BSTAR":2.3682e-5,"MEAN_MOTION_DOT":1.0e-6,"MEAN_MOTION_DDOT":0},{"OBJECT_NAME":"IRIDIUM 171","OBJECT_ID":"2019-002H","EPOCH":"2026-04-26T06:05:06.993024","MEAN_MOTION":14.34217259,"ECCENTRICITY":0.0002201,"INCLINATION":86.4019,"RA_OF_ASC_NODE":15.5752,"ARG_OF_PERICENTER":82.8127,"MEAN_ANOMALY":277.3319,"EPHEMERIS_TYPE":0,"CLASSIFICATION_TYPE":"U","NORAD_CAT_ID":43929,"ELEMENT_SET_NO":999,"REV_AT_EPOCH":38151,"BSTAR":-1.6078e-5,"MEAN_MOTION_DOT":-2.5e-7,"MEAN_MOTION_DDOT":0},{"OBJECT_NAME":"IRIDIUM 170","OBJECT_ID":"2019-002J","EPOCH":"2026-04-26T10:36:06.899328","MEAN_MOTION":14.72254305,"ECCENTRICITY":0.0002251,"INCLINATION":86.6135,"RA_OF_ASC_NODE":15.1756,"ARG_OF_PERICENTER":84.0049,"MEAN_ANOMALY":276.1425,"EPHEMERIS_TYPE":0,"CLASSIFICATION_TYPE":"U","NORAD_CAT_ID":43930,"ELEMENT_SET_NO":999,"REV_AT_EPOCH":39164,"BSTAR":0.00012636,"MEAN_MOTION_DOT":8.21e-6,"MEAN_MOTION_DDOT":0},{"OBJECT_NAME":"IRIDIUM 167","OBJECT_ID":"2019-002K","EPOCH":"2026-04-26T10:57:22.999680","MEAN_MOTION":14.34217504,"ECCENTRICITY":0.0002387,"INCLINATION":86.4011,"RA_OF_ASC_NODE":15.2122,"ARG_OF_PERICENTER":82.094,"MEAN_ANOMALY":278.0526,"EPHEMERIS_TYPE":0,"CLASSIFICATION_TYPE":"U","NORAD_CAT_ID":43931,"ELEMENT_SET_NO":999,"REV_AT_EPOCH":38154,"BSTAR":-1.0456e-5,"MEAN_MOTION_DOT":-1.0e-7,"MEAN_MOTION_DDOT":0},{"OBJECT_NAME":"IRIDIUM 181","OBJECT_ID":"2023-068S","EPOCH":"2026-04-26T09:16:53.289696","MEAN_MOTION":14.4331039,"ECCENTRICITY":0.0002137,"INCLINATION":86.4474,"RA_OF_ASC_NODE":78.4408,"ARG_OF_PERICENTER":80.2145,"MEAN_ANOMALY":279.9297,"EPHEMERIS_TYPE":0,"CLASSIFICATION_TYPE":"U","NORAD_CAT_ID":56726,"ELEMENT_SET_NO":999,"REV_AT_EPOCH":15496,"BSTAR":0.00011238,"MEAN_MOTION_DOT":3.98e-6,"MEAN_MOTION_DDOT":0},{"OBJECT_NAME":"IRIDIUM 177","OBJECT_ID":"2023-068T","EPOCH":"2026-04-26T09:42:41.440320","MEAN_MOTION":14.80235661,"ECCENTRICITY":0.0002289,"INCLINATION":86.1994,"RA_OF_ASC_NODE":353.3874,"ARG_OF_PERICENTER":92.4237,"MEAN_ANOMALY":267.7246,"EPHEMERIS_TYPE":0,"CLASSIFICATION_TYPE":"U","NORAD_CAT_ID":56727,"ELEMENT_SET_NO":999,"REV_AT_EPOCH":15870,"BSTAR":0.00013537,"MEAN_MOTION_DOT":1.055e-5,"MEAN_MOTION_DDOT":0},{"OBJECT_NAME":"IRIDIUM 174","OBJECT_ID":"2023-068U","EPOCH":"2026-04-26T10:18:18.635040","MEAN_MOTION":14.72252892,"ECCENTRICITY":0.000234,"INCLINATION":86.6143,"RA_OF_ASC_NODE":15.3229,"ARG_OF_PERICENTER":89.2668,"MEAN_ANOMALY":270.8817,"EPHEMERIS_TYPE":0,"CLASSIFICATION_TYPE":"U","NORAD_CAT_ID":56728,"ELEMENT_SET_NO":999,"REV_AT_EPOCH":15840,"BSTAR":6.9736e-5,"MEAN_MOTION_DOT":4.64e-6,"MEAN_MOTION_DDOT":0},{"OBJECT_NAME":"IRIDIUM 178","OBJECT_ID":"2023-068V","EPOCH":"2026-04-26T07:49:30.245664","MEAN_MOTION":14.8023287,"ECCENTRICITY":0.0002495,"INCLINATION":86.6557,"RA_OF_ASC_NODE":47.0223,"ARG_OF_PERICENTER":81.6856,"MEAN_ANOMALY":278.4649,"EPHEMERIS_TYPE":0,"CLASSIFICATION_TYPE":"U","NORAD_CAT_ID":56729,"ELEMENT_SET_NO":999,"REV_AT_EPOCH":15869,"BSTAR":0.0001516,"MEAN_MOTION_DOT":1.178e-5,"MEAN_MOTION_DDOT":0},{"OBJECT_NAME":"IRIDIUM 179","OBJECT_ID":"2023-068W","EPOCH":"2026-04-26T07:41:46.288896","MEAN_MOTION":14.80235797,"ECCENTRICITY":0.0002865,"INCLINATION":86.6785,"RA_OF_ASC_NODE":55.852,"ARG_OF_PERICENTER":82.2784,"MEAN_ANOMALY":277.8763,"EPHEMERIS_TYPE":0,"CLASSIFICATION_TYPE":"U","NORAD_CAT_ID":56730,"ELEMENT_SET_NO":999,"REV_AT_EPOCH":15869,"BSTAR":0.00015234,"MEAN_MOTION_DOT":1.184e-5,"MEAN_MOTION_DDOT":0}]
