IRIDIUM 173             
1 43925U 19002D   26116.41846020  .00000019  00000+0 -21199-6 0  9994
2 43925  86.4010  15.1984 0002101  88.2185 271.9251 14.34217418381530
IRIDIUM 169             
1 43926U 19002E   26116.50275113  .00000363  00000+0  11212-3 0  9997
2 43926  86.4242  46.7907 0002810  92.9875 267.1645 14.38608721382796
IRIDIUM 172             
1 43927U 19002F   26116.41211497  .00000009  00000+0 -39021-5 0  9991
2 43927  86.4009  15.2088 0002009  85.1759 274.9666 14.34218845381545
IRIDIUM 175             
1 43928U 19002G   26116.28919720  .00000100  00000+0  23682-4 0  9997
2 43928  86.4488 312.2307 0004853  56.9575 303.2092 14.43590261391491
IRIDIUM 171             
1 43929U 19002H   26116.25355316 -.00000025  00000+0 -16078-4 0  9999
2 43929  86.4019  15.5752 0002201  82.8127 277.3319 14.34217259381513
IRIDIUM 170             
1 43930U 19002J   26116.44174652  .00000821  00000+0  12636-3 0  9991
2 43930  86.6135  15.1756 0002251  84.0049 276.1425 14.72254305391643
IRIDIUM 167             
1 43931U 19002K   26116.45651620 -.00000010  00000+0 -10456-4 0  9999
2 43931  86.4011  15.2122 0002387  82.0940 278.0526 14.34217504381540
IRIDIUM 181             
1 56726U 23068S   26116.38672789  .00000398  00000+0  11238-3 0  9998
2 56726  86.4474  78.4408 0002137  80.2145 279.9297 14.43310390154963
IRIDIUM 177             
1 56727U 23068T   26116.40464630  .00001055  00000+0  13537-3 0  9991
2 56727  86.1994 353.3874 0002289  92.4237 267.7246 14.80235661158708
IRIDIUM 174             
1 56728U 23068U   26116.42938235  .00000464  00000+0  69736-4 0  9997
2 56728  86.6143  15.3229 0002340  89.2668 270.8817 14.72252892158401
IRIDIUM 178             
1 56729U 23068V   26116.32604451  .00001178  00000+0  15160-3 0  9991
2 56729  86.6557  47.0223 0002495  81.6856 278.4649 14.80232870158694
IRIDIUM 179             
1 56730U 23068W   26116.32067464  .00001184  00000+0  15234-3 0  9999
2 56730  86.6785  55.8520 0002865  82.2784 277.8763 14.80235797158695
